[{"OBJECT_NAME":"TRANSPORTER-13 OBJECT AH","OBJECT_ID":"2025-052AH","EPOCH":"2026-03-09T15:34:17.115744","MEAN_MOTION":15.25468797,"ECCENTRICITY":0.000807,"INCLINATION":97.3962,"RA_OF_ASC_NODE":323.1443,"ARG_OF_PERICENTER":138.7508,"MEAN_ANOMALY":221.4341,"EPHEMERIS_TYPE":0,"CLASSIFICATION_TYPE":"U","NORAD_CAT_ID":63241,"ELEMENT_SET_NO":999,"REV_AT_EPOCH":5475,"BSTAR":0.00055931,"MEAN_MOTION_DOT":0.00014108,"MEAN_MOTION_DDOT":0},{"OBJECT_NAME":"STARLINK-35887","OBJECT_ID":"2025-288A","EPOCH":"2026-03-09T06:20:40.159680","MEAN_MOTION":15.27551778,"ECCENTRICITY":9.966e-5,"INCLINATION":43.002,"RA_OF_ASC_NODE":25.7544,"ARG_OF_PERICENTER":280.2159,"MEAN_ANOMALY":79.858,"EPHEMERIS_TYPE":0,"CLASSIFICATION_TYPE":"U","NORAD_CAT_ID":66959,"ELEMENT_SET_NO":999,"REV_AT_EPOCH":1522,"BSTAR":0.00092625526,"MEAN_MOTION_DOT":0.00025292,"MEAN_MOTION_DDOT":0}]
